[
    {
        "Altitude(m)": 559346.4846673966,
        "Argument of Periapsis(deg)": 0.033114955553567506,
        "Eccentricity": 0.0,
        "Inclination(deg)": 53.0,
        "Latitude(deg)": -21.331123097999406,
        "Longitude(deg)": 78.02964805937418,
        "Mean Anomaly(deg)": -153.1783356621121,
        "RAAN(deg)": 344.9507168426401,
        "Satellite Name": "Starlink Shell 1 1527",
        "Satellite Number": 1527,
        "Semi-Major Axis(m)": 6931778.249405717,
        "Time(s)": 950
    },
    {
        "Altitude(m)": 559508.3496548672,
        "Argument of Periapsis(deg)": 0.03346353403307874,
        "Eccentricity": 0.0,
        "Inclination(deg)": 53.0,
        "Latitude(deg)": -21.81122205061015,
        "Longitude(deg)": 78.42295385567954,
        "Mean Anomaly(deg)": -152.55150445855534,
        "RAAN(deg)": 344.9501980725626,
        "Satellite Name": "Starlink Shell 1 1527",
        "Satellite Number": 1527,
        "Semi-Major Axis(m)": 6931778.249405717,
        "Time(s)": 960
    },
    {
        "Altitude(m)": 559671.4678708559,
        "Argument of Periapsis(deg)": 0.03381211251258998,
        "Eccentricity": 0.0,
        "Inclination(deg)": 53.0,
        "Latitude(deg)": -22.290127611069376,
        "Longitude(deg)": 78.8191477912395,
        "Mean Anomaly(deg)": -151.92467325499868,
        "RAAN(deg)": 344.94967930248515,
        "Satellite Name": "Starlink Shell 1 1527",
        "Satellite Number": 1527,
        "Semi-Major Axis(m)": 6931778.249405717,
        "Time(s)": 970
    },
    {
        "Altitude(m)": 559835.7816102887,
        "Argument of Periapsis(deg)": 0.034160690992101214,
        "Eccentricity": 0.0,
        "Inclination(deg)": 53.0,
        "Latitude(deg)": -22.767803665322127,
        "Longitude(deg)": 79.21831264614113,
        "Mean Anomaly(deg)": -151.2978420514419,
        "RAAN(deg)": 344.94916053240763,
        "Satellite Name": "Starlink Shell 1 1527",
        "Satellite Number": 1527,
        "Semi-Major Axis(m)": 6931778.249405717,
        "Time(s)": 980
    },
    {
        "Altitude(m)": 560001.2324858004,
        "Argument of Periapsis(deg)": 0.034509269471612446,
        "Eccentricity": 0.0,
        "Inclination(deg)": 53.0,
        "Latitude(deg)": -23.24421340456644,
        "Longitude(deg)": 79.62053285068558,
        "Mean Anomaly(deg)": -150.67101084788519,
        "RAAN(deg)": 344.9486417623302,
        "Satellite Name": "Starlink Shell 1 1527",
        "Satellite Number": 1527,
        "Semi-Major Axis(m)": 6931778.249405717,
        "Time(s)": 990
    }
]